TEVEL2-1                
1 63217U 25052H   26149.25606875  .00022821  00000+0  71351-3 0  9998
2 63217  97.3907  45.2087 0003265 148.8411 211.3025 15.33154308 67195
TEVEL2-3                
1 63218U 25052J   26149.25136705  .00023170  00000+0  72320-3 0  9994
2 63218  97.3913  45.2234 0003323 150.5899 209.5531 15.33205083 67190
TEVEL2-2                
1 63219U 25052K   26149.25648118  .00023007  00000+0  71912-3 0  9996
2 63219  97.3907  45.2110 0003244 150.6875 209.4549 15.33161045 67191
TEVEL2-9                
1 63237U 25052AD  26149.27513319  .00021454  00000+0  71197-3 0  9991
2 63237  97.3970  44.6452 0005521 189.1188 170.9954 15.31243291 67135
TEVEL2-7                
1 63238U 25052AE  26149.24715104  .00021120  00000+0  70704-3 0  9998
2 63238  97.3974  44.5409 0005644 189.9993 170.1136 15.30963779 67121
TEVEL2-8                
1 63239U 25052AF  26149.25519930  .00021251  00000+0  71175-3 0  9997
2 63239  97.3976  44.5273 0005571 191.1221 168.9898 15.30947181 67120
INNOSAT 16 (RS92S7)     
1 64878U 25155C   26149.56824025  .00007417  00000+0  29776-3 0  9997
2 64878  97.4550 116.7597 0008638 247.3828 112.6496 15.25231820 77833
GEOSCAN 6 (RS92S6)      
1 64879U 25155D   26149.54172723  .00012346  00000+0  43058-3 0  9993
2 64879  97.4542 118.0281 0005946 233.4718 126.5975 15.29754738 77910
GEOSCAN 1 (RS92S1)      
1 64880U 25155E   26149.55124963  .00013282  00000+0  45502-3 0  9995
2 64880  97.4539 118.1699 0005863 233.1290 126.9413 15.30317538 77929
239ALFEROV (RS61S)      
1 64881U 25155F   26149.54678039  .00018014  00000+0  57777-3 0  9998
2 64881  97.4540 118.6660 0005348 229.3154 130.7624 15.32378804 77954
GEOSCAN 2 (RS92S2)      
1 64890U 25155Q   26149.54824300  .00013448  00000+0  45682-3 0  9990
2 64890  97.4538 118.3120 0005597 215.0209 145.0664 15.30592294 77938
GEOSCAN 5 (RS92S5)      
1 64891U 25155R   26149.53966555  .00017759  00000+0  56417-3 0  9996
2 64891  97.4533 118.7891 0004100 235.1071 124.9786 15.32695637 77963
GEOSCAN 4 (RS92S4)      
1 64892U 25155S   26149.59094471  .00018429  00000+0  58266-3 0  9991
2 64892  97.4536 118.8839 0004089 235.3572 124.7285 15.32840955 77972
GEOSCAN 3 (RS92S3)      
1 64893U 25155T   26149.54978264  .00020842  00000+0  62117-3 0  9990
2 64893  97.4526 119.2203 0003895 232.2610 127.8280 15.34692822 77996
INNOSAT 3 (RS92S0)      
1 64894U 25155U   26149.57255087  .00044302  00000+0  10238-2 0  9998
2 64894  97.4478 120.6433 0002709 209.7138 150.3955 15.42378120 78094
KNACKSAT-2              
1 67683U 98067XZ  26148.92893911  .00055397  00000+0  72270-3 0  9992
2 67683  51.6306  31.2154 0011550 132.0548 228.1429 15.58069439 17279
